LIME                    
1 62648U 25009AR  26068.73906781  .00013254  00000+0  47723-3 0  9995
2 62648  97.3985 151.4831 0001635  35.9029 324.2320 15.28703313 63766
STARLINK-35437          
1 66563U 25268G   26068.18425030  .00032250  00000+0  11759-2 0  9990
2 66563  43.0025 349.8196 0002268 262.1517  97.9078 15.27591418 17881
